{
  "type": "FeatureCollection",
  "name": "Baner_Urban_Cadastral_Parcels",
  "crs": {
    "type": "name",
    "properties": { "name": "urn:ogc:def:crs:OGC:1.3:CRS84" }
  },
  "features": [
    {
      "type": "Feature",
      "properties": {
        "parcel_id": "P2P-IND-MH-4001",
        "survey_number": "104/1A",
        "ward_number": "Ward 12",
        "state": "Maharashtra",
        "district": "Pune",
        "taluk": "Haveli",
        "village": "Baner",
        "owner_name": "Vikramaditya Deshmukh",
        "land_use": "Urban Residential",
        "area_sqm": 845.20,
        "perimeter_m": 118.40,
        "compactness": 0.94,
        "confidence_score": 96.2,
        "risk_level": "Green",
        "status": "Verified"
      },
      "geometry": {
        "type": "Polygon",
        "coordinates": [[
          [73.7885, 18.5575],
          [73.7892, 18.5575],
          [73.7892, 18.5582],
          [73.7885, 18.5582],
          [73.7885, 18.5575]
        ]]
      }
    },
    {
      "type": "Feature",
      "properties": {
        "parcel_id": "P2P-IND-MH-4002",
        "survey_number": "104/1B",
        "ward_number": "Ward 12",
        "state": "Maharashtra",
        "district": "Pune",
        "taluk": "Haveli",
        "village": "Baner",
        "owner_name": "Maharashtra State Housing Corp",
        "land_use": "Urban Residential",
        "area_sqm": 920.80,
        "perimeter_m": 124.50,
        "compactness": 0.89,
        "confidence_score": 71.4,
        "risk_level": "Amber",
        "status": "Under Verification"
      },
      "geometry": {
        "type": "Polygon",
        "coordinates": [[
          [73.7892, 18.5575],
          [73.7901, 18.5575],
          [73.7901, 18.5583],
          [73.7892, 18.5582],
          [73.7892, 18.5575]
        ]]
      }
    },
    {
      "type": "Feature",
      "properties": {
        "parcel_id": "P2P-IND-MH-4003",
        "survey_number": "105/2",
        "ward_number": "Ward 12",
        "state": "Maharashtra",
        "district": "Pune",
        "taluk": "Haveli",
        "village": "Baner",
        "owner_name": "Baner Tech Park Pvt Ltd",
        "land_use": "Commercial Asset",
        "area_sqm": 1450.60,
        "perimeter_m": 156.20,
        "compactness": 0.92,
        "confidence_score": 98.1,
        "risk_level": "Green",
        "status": "Approved"
      },
      "geometry": {
        "type": "Polygon",
        "coordinates": [[
          [73.7885, 18.5582],
          [73.7895, 18.5582],
          [73.7895, 18.5594],
          [73.7885, 18.5594],
          [73.7885, 18.5582]
        ]]
      }
    },
    {
      "type": "Feature",
      "properties": {
        "parcel_id": "P2P-IND-MH-4004",
        "survey_number": "106/1",
        "ward_number": "Ward 12",
        "state": "Maharashtra",
        "district": "Pune",
        "taluk": "Haveli",
        "village": "Baner",
        "owner_name": "Pune Municipal Corporation (PMC)",
        "land_use": "Public Infrastructure / Road",
        "area_sqm": 1120.30,
        "perimeter_m": 142.10,
        "compactness": 0.88,
        "confidence_score": 95.0,
        "risk_level": "Green",
        "status": "Approved"
      },
      "geometry": {
        "type": "Polygon",
        "coordinates": [[
          [73.7895, 18.5582],
          [73.7908, 18.5583],
          [73.7908, 18.5592],
          [73.7895, 18.5594],
          [73.7895, 18.5582]
        ]]
      }
    },
    {
      "type": "Feature",
      "properties": {
        "parcel_id": "P2P-IND-MH-4005",
        "survey_number": "107/3",
        "ward_number": "Ward 12",
        "state": "Maharashtra",
        "district": "Pune",
        "taluk": "Haveli",
        "village": "Baner",
        "owner_name": "Ananya R. Verma",
        "land_use": "Urban Residential",
        "area_sqm": 780.40,
        "perimeter_m": 112.00,
        "compactness": 0.78,
        "confidence_score": 52.8,
        "risk_level": "Red",
        "status": "Disputed"
      },
      "geometry": {
        "type": "Polygon",
        "coordinates": [[
          [73.7901, 18.5575],
          [73.7912, 18.5575],
          [73.7912, 18.5584],
          [73.7901, 18.5583],
          [73.7901, 18.5575]
        ]]
      }
    }
  ]
}
